{
  "norad_id": 65637,
  "name": "STARLINK-35147",
  "history": [
    {
      "epoch": "2026-03-28T15:30:46.412064Z",
      "apogee_km": 476.1714915259099,
      "perigee_km": 474.3087436253527,
      "latitude_deg": 6.47900448361433e-05,
      "longitude_deg": 160.2561369985876,
      "height_km": 476.0872661662289,
      "semi_major_axis_km": 6853.377117575631,
      "eccentricity": 0.0001359,
      "inclination_deg": 53.1595,
      "raan_deg": 219.0133,
      "arg_perigee_deg": 86.877,
      "mean_anomaly_deg": 273.2387,
      "mean_motion_rev_day": 15.30191611
    }
  ]
}