{"fetched_at":"2026-03-30T13:17:50Z","count":15418,"tles":[{"name":"STARLINK-35147","line1":"1 65637U 25210R   26087.64637051  .00026105  00000+0  89065-3 0  9996","line2":"2 65637  53.1595 219.0133 0001359  86.8770 273.2387 15.30191611 30632","category":"Starlink"}]}